STARLINK-34707          
1 65176C 25175C   26185.62131944  .00032965  00000+0  22880-2 0  1850
2 65176  97.2852  56.2025 0002827  85.7835 182.2695 15.05651462    14
STARLINK-34967          
1 65177C 25175D   26185.71576389 -.00060915  00000+0 -42291-2 0  1853
2 65177  97.2851  56.2986 0002776  87.5966 347.0451 15.05688972    15
STARLINK-34929          
1 65178C 25175E   26185.72270833 -.00066154  00000+0 -45927-2 0  1850
2 65178  97.2850  56.3117 0002801  89.1098  38.1435 15.05692274    15
STARLINK-34932          
1 65179C 25175F   26185.64423611 -.00068063  00000+0 -47207-2 0  1850
2 65179  97.2848  56.2512 0002632  90.4959   1.7099 15.05729099    12
STARLINK-34862          
1 65180C 25175G   26185.69354167 -.00027968  00000+0 -19410-2 0  1850
2 65180  97.2847  56.3034 0002848  79.2229 294.9011 15.05685068    14
STARLINK-34942          
1 65181C 25175H   26185.71159722 -.00039042  00000+0 -27101-2 0  1856
2 65181  97.2848  56.3080 0002610  88.0608 354.0085 15.05683980    13
STARLINK-34944          
1 65182C 25175J   26185.68451389 -.00022271  00000+0 -15451-2 0  1858
2 65182  97.2849  56.3019 0002494  91.0066 249.2827 15.05694319    16
STARLINK-34939          
1 65183C 25175K   26185.71368056 -.00055749  00000+0 -38703-2 0  1852
2 65183  97.2850  56.3356 0002365  89.3733  63.9624 15.05687998    12
STARLINK-34947          
1 65184C 25175L   26185.60743056  .00039284  00000+0  27261-2 0  1859
2 65184  97.2844  56.2423 0002235  87.6383 225.1505 15.05655458    14
STARLINK-34945          
1 65185C 25175M   26185.64145833  .00017370  00000+0  12055-2 0  1850
2 65185  97.2841  56.2804 0002569  82.7687  69.3471 15.05662852    14
STARLINK-34965          
1 65186C 25175N   26185.61854167  .00021047  00000+0  14611-2 0  1851
2 65186  97.2850  56.2720 0002416  74.2545 343.7160 15.05651555    14
STARLINK-34915          
1 65187C 25175P   26185.60743056  .00038750  00000+0  26893-2 0  1859
2 65187  97.2844  56.2553 0002475  78.8945 263.8941 15.05651488    15
STARLINK-34972          
1 65188C 25175Q   26185.60673611  .00027298  00000+0  18948-2 0  1856
2 65188  97.2853  56.2678 0002157  85.5740 283.4506 15.05652992    15
STARLINK-34866          
1 65189C 25175R   26185.66784722 -.00045392  00000+0 -31508-2 0  1853
2 65189  97.2847  56.3313 0002161  82.4533 272.5889 15.05688929    19
STARLINK-34917          
1 65190C 25175S   26185.66923611 -.00030424  00000+0 -21120-2 0  1856
2 65190  97.2853  56.3394 0001590  83.4971 294.0661 15.05679041    11
STARLINK-34948          
1 65191C 25175T   26185.66090278 -.00012666  00000+0 -87938-3 0  1859
2 65191  97.2851  56.3339 0002548  78.2621 269.2204 15.05662303    17
STARLINK-34955          
1 65192C 25175U   26185.66020833 -.00016805  00000+0 -11665-2 0  1852
2 65192  97.2853  56.3441 0002252  85.3991 273.2602 15.05673642    10
STARLINK-34950          
1 65193C 25175V   26185.68312500 -.00037067  00000+0 -25733-2 0  1854
2 65193  97.2854  56.3723 0001868  86.7952  51.0011 15.05680212    16
STARLINK-34926          
1 65194C 25175W   26185.65743056 -.00015673  00000+0 -10880-2 0  1852
2 65194  97.2851  56.3740 0002367  87.9095 330.7134 15.05667530    10
STARLINK-34928          
1 65195C 25175X   26185.60256944  .00029409  00000+0  20415-2 0  1858
2 65195  97.2852  56.3160 0002050  81.2342  25.1920 15.05647929    17
STARLINK-34927          
1 65196C 25175Y   26185.64006944 -.00044946  00000+0 -31201-2 0  1856
2 65196  97.2853  56.3385 0001574  83.9207 195.6364 15.05685521    12
STARLINK-34952          
1 65197C 25175Z   26185.71576389 -.00061958  00000+0 -43015-2 0  1858
2 65197  97.2852  56.4158 0002108  78.4689 266.1194 15.05690182    12
STARLINK-34981          
1 65198C 25176A   26185.63312500 -.00201130  00000+0 -67739-2 0  1851
2 65198  53.1594 332.4035 0000983  96.0394 297.0206 15.30315243    13
STARLINK-34821          
1 65199C 25176B   26185.68798611 -.00190870  00000+0 -56385-2 0  1851
2 65199  53.1587 327.1737 0000956  82.1262 264.8607 15.34491076    16
STARLINK-34865          
1 65200C 25176C   26185.64145833 -.00182040  00000+0 -53731-2 0  1854
2 65200  53.1594 327.9443 0001165  79.0051  91.5830 15.34511985    18
STARLINK-34843          
1 65201C 25176D   26185.69215278 -.00292840  00000+0 -86485-2 0  1853
2 65201  53.1601 327.3087 0000774  67.1404 221.4757 15.34550205    11
STARLINK-34905          
1 65202C 25176E   26185.63520833 -.00215880  00000+0 -63723-2 0  1853
2 65202  53.1602 327.5997 0000979  80.5787 241.6405 15.34528521    15
STARLINK-34914          
1 65203C 25176F   26185.70743056 -.00239660  00000+0 -70799-2 0  1859
2 65203  53.1601 327.2162 0000974  88.2065 296.4869 15.34515447    10
STARLINK-34787          
1 65204C 25176G   26185.70395833 -.00218180  00000+0 -64445-2 0  1851
2 65204  53.1590 327.0716 0001061 104.9810 341.9149 15.34507519    11
STARLINK-34796          
1 65205C 25176H   26185.60743056 -.00205740  00000+0 -60689-2 0  1859
2 65205  53.1598 327.9387 0001020  66.8622 357.1861 15.34544108    10
STARLINK-34763          
1 65206C 25176J   26185.61229167 -.00207870  00000+0 -61332-2 0  1855
2 65206  53.1599 327.8673 0001197  76.9484  37.2337 15.34537579    10
STARLINK-34901          
1 65207C 25176K   26185.65326389 -.00281620  00000+0 -83066-2 0  1857
2 65207  53.1595 327.8374 0001256 100.3523 158.8097 15.34584661    14
STARLINK-34841          
1 65208C 25176L   26185.66298611 -.00280100  00000+0 -82696-2 0  1855
2 65208  53.1589 327.4065 0000578  54.3401  96.3240 15.34554514    10
STARLINK-34976          
1 65209C 25176M   26185.72340278 -.00271690  00000+0 -80263-2 0  1852
2 65209  53.1603 327.3225 0001196  72.9251 307.0109 15.34529585    17
STARLINK-34941          
1 65210C 25176N   26185.62479167 -.00002921  00000+0 -86411-4 0  1855
2 65210  53.1595 327.9489 0001077  89.3524  24.0639 15.34349938    16
STARLINK-34847          
1 65211C 25176P   26185.69909722 -.00308320  00000+0 -91089-2 0  1855
2 65211  53.1601 329.1114 0000935  75.6117  39.4762 15.34546974    18
STARLINK-34897          
1 65212C 25176Q   26185.64562500 -.00267020  00000+0 -78816-2 0  1854
2 65212  53.1605 327.6185 0001121  75.3916 269.5382 15.34554206    17
STARLINK-34907          
1 65213C 25176R   26185.65395833 -.00252280  00000+0 -74457-2 0  1858
2 65213  53.1593 327.8548 0000850  97.0372 154.3880 15.34550620    14
STARLINK-34511          
1 65214C 25176S   26185.61854167 -.00220240  00000+0 -64962-2 0  1856
2 65214  53.1597 327.9558 0000979  90.9892 359.5642 15.34553027    11
STARLINK-33913          
1 65215C 25176T   26185.65534722 -.00270060  00000+0 -79718-2 0  1853
2 65215  53.1598 329.8002 0001202  71.5813 277.4635 15.34553785    17
STARLINK-34302          
1 65216C 25176U   26185.67965278 -.00236040  00000+0 -69745-2 0  1859
2 65216  53.1606 327.5057 0001577  77.8750  71.8993 15.34504988    11
STARLINK-34871          
1 65217C 25176V   26185.63243056 -.00237640  00000+0 -70142-2 0  1859
2 65217  53.1589 327.4754 0000841  87.5595 289.0926 15.34540419    11
STARLINK-34833          
1 65218C 25176W   26185.63034722 -.00239560  00000+0 -70680-2 0  1858
2 65218  53.1606 327.8709 0001078  87.8307  79.6182 15.34554949    13
STARLINK-34960          
1 65219C 25176X   26185.67826389 -.00221310  00000+0 -65357-2 0  1850
2 65219  53.1593 327.8550 0000960  88.0479 239.5910 15.34515791    13
STARLINK-34603          
1 65220C 25176Y   26185.66368056 -.00304130  00000+0 -89772-2 0  1852
2 65220  53.1589 327.3756 0001048  72.7126  93.4105 15.34572071    17
STARLINK-34974          
1 65221C 25176Z   26185.71576389 -.00232660  00000+0 -68751-2 0  1851
2 65221  53.1598 327.2427 0001302  92.6869 303.1929 15.34501320    14
STARLINK-34999          
1 65222C 25176AA  26185.62826389 -.00256920  00000+0 -75833-2 0  1854
2 65222  53.1592 328.0666 0001056  84.7633 338.1640 15.34550290    18
STARLINK-34996          
1 65223C 25176AB  26185.63937500 -.00254610  00000+0 -75115-2 0  1851
2 65223  53.1591 327.9884 0001039  84.6077  51.3521 15.34564662    10
STARLINK-34975          
1 65224C 25176AC  26185.70951389 -.00286150  00000+0 -84525-2 0  1850
2 65224  53.1598 327.4332 0000807  69.1732 210.7475 15.34541421    16
STARLINK-34257          
1 65225C 25176AD  26185.68451389 -.00289070  00000+0 -85355-2 0  1859
2 65225  53.1608 327.5920 0001112  87.0333  31.4452 15.34554529    15
STARLINK-34842          
1 65235C 25179A   26185.67548611 -.00068546  00000+0 -47580-2 0  1858
2 65235  97.2840 226.7013 0001350  96.4925 332.9503 15.05701583    19
STARLINK-34938          
1 65236C 25179B   26185.67548611 -.00048502  00000+0 -33667-2 0  1850
2 65236  97.2831 226.6196 0001973 110.5167 123.9674 15.05690513    15
STARLINK-34958          
1 65237C 25179C   26185.60743056  .00023636  00000+0  16403-2 0  1852
2 65237  97.2834 226.5156 0001592 109.8321  25.9581 15.05661804    13
STARLINK-34818          
1 65238C 25179D   26185.61090278  .00021620  00000+0  15004-2 0  1852
2 65238  97.2826 226.6042 0001507 126.3844 223.2343 15.05664021    13
STARLINK-34964          
1 65239C 25179E   26185.72895833 -.00077915  00000+0 -54091-2 0  1854
2 65239  97.2838 226.6112 0001858 107.6032 281.5585 15.05700746    15
STARLINK-34953          
1 65240C 25179F   26185.64493056 -.00024827  00000+0 -17232-2 0  1858
2 65240  97.2832 226.5771 0002989 119.7598 279.2145 15.05678746    18
STARLINK-34969          
1 65241C 25179G   26185.65256944 -.00017655  00000+0 -12253-2 0  1852
2 65241  97.2826 226.6172 0001373 113.4332  41.9049 15.05683287    14
STARLINK-34963          
1 65242C 25179H   26185.61715278  .00013648  00000+0  94706-3 0  1859
2 65242  97.2834 226.6297 0001256 112.0519 316.4230 15.05672500    12
STARLINK-34982          
1 65243C 25179J   26185.61090278  .00019523  00000+0  13548-2 0  1858
2 65243  97.2833 226.5324 0003118 100.6933  83.9508 15.05662287    19
